BREEZE-M R/B Breakup (2012-044C)
2012-044
BREEZE-M R/B            
1 38746U 12044C   17274.63161630  .00006409  00000-0  40134-3 0  9990
2 38746  49.6839 322.1333 2432425 349.2100   6.4338 10.44795998183010
BREEZE-M DEB            
1 38880U 12044M   17275.05746441  .00191680  13081-4  14062-2 0  9998
2 38880  49.7669 286.4638 0766329 115.1101 253.1298 14.30841465217826
BREEZE-M DEB            
1 38881U 12044N   17275.21858455  .00196111  11491-4  13189-2 0  9992
2 38881  50.4207 255.2373 1018875  25.9170 338.9305 13.76084616212513
BREEZE-M DEB            
1 38884U 12044R   17274.72454179  .00017446  28225-5  50743-3 0  9990
2 38884  50.0067 166.4816 2343086  50.6652 327.9524 10.74086853190456
BREEZE-M DEB            
1 38888U 12044V   17274.98982520  .00042283  44666-5  88667-3 0  9998
2 38888  50.0328 119.8194 1911403  16.2796 349.1603 11.67846530200074
BREEZE-M DEB            
1 38921U 12044BE  17274.78963062  .00069393  52232-5  10740-2 0  9999
2 38921  50.2064  73.2385 1680478   9.4120 353.4451 12.20835798201070
BREEZE-M DEB            
1 38922U 12044BF  17275.19793826  .00024706  32161-5  58545-3 0  9999
2 38922  50.0690  18.6075 2196128 158.3592 212.6755 11.06840748194084
BREEZE-M DEB            
1 38926U 12044BK  17274.53251440  .00056553  49353-5  10665-2 0  9997
2 38926  49.9946 294.8216 1715010 171.2326 192.3039 12.10828246204041
BREEZE-M DEB            
1 38948U 12044CH  17274.77363017  .00031548  51310-5  65088-3 0  9994
2 38948  50.0777  30.3216 1810439  80.6005 299.3944 11.89643302201796
BREEZE-M DEB            
1 38957U 12044CQ  17274.66479589  .00050305  44415-5  95915-3 0  9996
2 38957  50.0137 144.7803 1859458 359.4296   0.4431 11.80016515198610
BREEZE-M DEB            
1 38960U 12044CT  17273.30721489  .00023640  33163-5  51017-3 0  9994
2 38960  50.1380 251.3903 1987233 249.8611  87.8350 11.51654744196490
BREEZE-M DEB            
1 38961U 12044CU  17274.70392963  .00030065  51365-5  60814-3 0  9999
2 38961  50.1005  21.3675 1808823  83.8198 296.4608 11.90290456195468
BREEZE-M DEB            
1 38971U 12044DE  17274.34048219  .00035231  52226-5  66002-3 0  9994
2 38971  50.0895 321.5672 1699949 133.4493 242.1002 12.14395452202851
